CCSDS_OMM_VERS = 2.0
CREATION_DATE  = 
ORIGINATOR     = 

OBJECT_NAME    = AQUA
OBJECT_ID      = 2002-022A
CENTER_NAME    = EARTH
REF_FRAME      = TEME
TIME_SYSTEM    = UTC
MEAN_ELEMENT_THEORY = SGP/SGP4

EPOCH          = 2026-03-08T12:44:29.537088
MEAN_MOTION    = 14.61974795
ECCENTRICITY   = .0000567
INCLINATION    = 98.4174
RA_OF_ASC_NODE = 34.8747
ARG_OF_PERICENTER = 75.1646
MEAN_ANOMALY   = 37.6898

EPHEMERIS_TYPE = 0
CLASSIFICATION_TYPE = U
NORAD_CAT_ID   = 27424
ELEMENT_SET_NO = 999
REV_AT_EPOCH   = 26856
BSTAR          = .32931E-3
MEAN_MOTION_DOT = .1601E-4
MEAN_MOTION_DDOT = 0

CCSDS_OMM_VERS = 2.0
CREATION_DATE  = 
ORIGINATOR     = 

OBJECT_NAME    = CZ-4B R/B
OBJECT_ID      = 2002-024C
CENTER_NAME    = EARTH
REF_FRAME      = TEME
TIME_SYSTEM    = UTC
MEAN_ELEMENT_THEORY = SGP/SGP4

EPOCH          = 2026-03-08T10:27:41.326272
MEAN_MOTION    = 14.14547463
ECCENTRICITY   = .0050543
INCLINATION    = 98.8841
RA_OF_ASC_NODE = 120.8489
ARG_OF_PERICENTER = 27.7663
MEAN_ANOMALY   = 343.0346

EPHEMERIS_TYPE = 0
CLASSIFICATION_TYPE = U
NORAD_CAT_ID   = 27432
ELEMENT_SET_NO = 999
REV_AT_EPOCH   = 22906
BSTAR          = .50203E-4
MEAN_MOTION_DOT = .53E-6
MEAN_MOTION_DDOT = 0

CCSDS_OMM_VERS = 2.0
CREATION_DATE  = 
ORIGINATOR     = 

OBJECT_NAME    = MIDORI II (ADEOS-II)
OBJECT_ID      = 2002-056A
CENTER_NAME    = EARTH
REF_FRAME      = TEME
TIME_SYSTEM    = UTC
MEAN_ELEMENT_THEORY = SGP/SGP4

EPOCH          = 2026-03-08T11:22:00.447456
MEAN_MOTION    = 14.29284186
ECCENTRICITY   = .0001637
INCLINATION    = 98.7768
RA_OF_ASC_NODE = 25.9428
ARG_OF_PERICENTER = 44.4388
MEAN_ANOMALY   = 315.6924

EPHEMERIS_TYPE = 0
CLASSIFICATION_TYPE = U
NORAD_CAT_ID   = 27597
ELEMENT_SET_NO = 999
REV_AT_EPOCH   = 21012
BSTAR          = .19568E-3
MEAN_MOTION_DOT = .452E-5
MEAN_MOTION_DDOT = 0

CCSDS_OMM_VERS = 2.0
CREATION_DATE  = 
ORIGINATOR     = 

OBJECT_NAME    = H-2A R/B
OBJECT_ID      = 2002-056E
CENTER_NAME    = EARTH
REF_FRAME      = TEME
TIME_SYSTEM    = UTC
MEAN_ELEMENT_THEORY = SGP/SGP4

EPOCH          = 2026-03-08T12:45:26.630208
MEAN_MOTION    = 14.33759926
ECCENTRICITY   = .0070438
INCLINATION    = 98.3202
RA_OF_ASC_NODE = 27.9412
ARG_OF_PERICENTER = 164.0970
MEAN_ANOMALY   = 311.7337

EPHEMERIS_TYPE = 0
CLASSIFICATION_TYPE = U
NORAD_CAT_ID   = 27601
ELEMENT_SET_NO = 999
REV_AT_EPOCH   = 21394
BSTAR          = .14637E-3
MEAN_MOTION_DOT = .377E-5
MEAN_MOTION_DDOT = 0

CCSDS_OMM_VERS = 2.0
CREATION_DATE  = 
ORIGINATOR     = 

OBJECT_NAME    = CZ-4B R/B
OBJECT_ID      = 2003-049C
CENTER_NAME    = EARTH
REF_FRAME      = TEME
TIME_SYSTEM    = UTC
MEAN_ELEMENT_THEORY = SGP/SGP4

EPOCH          = 2026-03-08T11:44:56.062464
MEAN_MOTION    = 14.55019163
ECCENTRICITY   = .0047207
INCLINATION    = 98.6879
RA_OF_ASC_NODE = 62.3472
ARG_OF_PERICENTER = 234.6442
MEAN_ANOMALY   = 125.0337

EPHEMERIS_TYPE = 0
CLASSIFICATION_TYPE = U
NORAD_CAT_ID   = 28059
ELEMENT_SET_NO = 999
REV_AT_EPOCH   = 18642
BSTAR          = .13979E-3
MEAN_MOTION_DOT = .559E-5
MEAN_MOTION_DDOT = 0

CCSDS_OMM_VERS = 2.0
CREATION_DATE  = 
ORIGINATOR     = 

OBJECT_NAME    = CZ-2C R/B
OBJECT_ID      = 2004-012C
CENTER_NAME    = EARTH
REF_FRAME      = TEME
TIME_SYSTEM    = UTC
MEAN_ELEMENT_THEORY = SGP/SGP4

EPOCH          = 2026-03-08T03:18:39.700800
MEAN_MOTION    = 15.64285708
ECCENTRICITY   = .0013011
INCLINATION    = 97.7227
RA_OF_ASC_NODE = 132.2834
ARG_OF_PERICENTER = 315.6412
MEAN_ANOMALY   = 44.3802

EPHEMERIS_TYPE = 0
CLASSIFICATION_TYPE = U
NORAD_CAT_ID   = 28222
ELEMENT_SET_NO = 999
REV_AT_EPOCH   = 20403
BSTAR          = .75856E-3
MEAN_MOTION_DOT = .73007E-3
MEAN_MOTION_DDOT = 0

CCSDS_OMM_VERS = 2.0
CREATION_DATE  = 
ORIGINATOR     = 

OBJECT_NAME    = SL-16 R/B
OBJECT_ID      = 2004-021B
CENTER_NAME    = EARTH
REF_FRAME      = TEME
TIME_SYSTEM    = UTC
MEAN_ELEMENT_THEORY = SGP/SGP4

EPOCH          = 2026-03-08T12:54:21.371904
MEAN_MOTION    = 14.14598441
ECCENTRICITY   = .0003979
INCLINATION    = 70.9994
RA_OF_ASC_NODE = 234.9099
ARG_OF_PERICENTER = 11.4573
MEAN_ANOMALY   = 348.6639

EPHEMERIS_TYPE = 0
CLASSIFICATION_TYPE = U
NORAD_CAT_ID   = 28353
ELEMENT_SET_NO = 999
REV_AT_EPOCH   = 12267
BSTAR          = -.93348E-4
MEAN_MOTION_DOT = -.227E-5
MEAN_MOTION_DDOT = 0

CCSDS_OMM_VERS = 2.0
CREATION_DATE  = 
ORIGINATOR     = 

OBJECT_NAME    = CZ-4B R/B
OBJECT_ID      = 2004-035C
CENTER_NAME    = EARTH
REF_FRAME      = TEME
TIME_SYSTEM    = UTC
MEAN_ELEMENT_THEORY = SGP/SGP4

EPOCH          = 2026-03-08T01:50:39.878880
MEAN_MOTION    = 15.29030592
ECCENTRICITY   = .0031169
INCLINATION    = 97.3499
RA_OF_ASC_NODE = 101.3384
ARG_OF_PERICENTER = 337.5188
MEAN_ANOMALY   = 22.4684

EPHEMERIS_TYPE = 0
CLASSIFICATION_TYPE = U
NORAD_CAT_ID   = 28415
ELEMENT_SET_NO = 999
REV_AT_EPOCH   = 17966
BSTAR          = .42884E-3
MEAN_MOTION_DOT = .12195E-3
MEAN_MOTION_DDOT = 0

CCSDS_OMM_VERS = 2.0
CREATION_DATE  = 
ORIGINATOR     = 

OBJECT_NAME    = CZ-2C R/B
OBJECT_ID      = 2004-046B
CENTER_NAME    = EARTH
REF_FRAME      = TEME
TIME_SYSTEM    = UTC
MEAN_ELEMENT_THEORY = SGP/SGP4

EPOCH          = 2026-03-08T12:05:37.687488
MEAN_MOTION    = 14.26991577
ECCENTRICITY   = .0139826
INCLINATION    = 98.1984
RA_OF_ASC_NODE = 342.5617
ARG_OF_PERICENTER = 157.9305
MEAN_ANOMALY   = 202.7978

EPHEMERIS_TYPE = 0
CLASSIFICATION_TYPE = U
NORAD_CAT_ID   = 28480
ELEMENT_SET_NO = 999
REV_AT_EPOCH   = 10833
BSTAR          = .74573E-4
MEAN_MOTION_DOT = .161E-5
MEAN_MOTION_DDOT = 0

CCSDS_OMM_VERS = 2.0
CREATION_DATE  = 
ORIGINATOR     = 

OBJECT_NAME    = ARIANE 5 R/B
OBJECT_ID      = 2004-049H
CENTER_NAME    = EARTH
REF_FRAME      = TEME
TIME_SYSTEM    = UTC
MEAN_ELEMENT_THEORY = SGP/SGP4

EPOCH          = 2026-03-08T10:04:51.126816
MEAN_MOTION    = 14.85263891
ECCENTRICITY   = .008403
INCLINATION    = 98.2625
RA_OF_ASC_NODE = 235.8295
ARG_OF_PERICENTER = 356.0582
MEAN_ANOMALY   = 3.9960

EPHEMERIS_TYPE = 0
CLASSIFICATION_TYPE = U
NORAD_CAT_ID   = 28499
ELEMENT_SET_NO = 999
REV_AT_EPOCH   = 14560
BSTAR          = .13285E-3
MEAN_MOTION_DOT = .1149E-4
MEAN_MOTION_DDOT = 0

CCSDS_OMM_VERS = 2.0
CREATION_DATE  = 
ORIGINATOR     = 

OBJECT_NAME    = CZ-2D R/B
OBJECT_ID      = 2005-024B
CENTER_NAME    = EARTH
REF_FRAME      = TEME
TIME_SYSTEM    = UTC
MEAN_ELEMENT_THEORY = SGP/SGP4

EPOCH          = 2026-03-08T11:46:36.680448
MEAN_MOTION    = 15.60021122
ECCENTRICITY   = .0006094
INCLINATION    = 97.3598
RA_OF_ASC_NODE = 82.5929
ARG_OF_PERICENTER = 50.0585
MEAN_ANOMALY   = 310.1207

EPHEMERIS_TYPE = 0
CLASSIFICATION_TYPE = U
NORAD_CAT_ID   = 28738
ELEMENT_SET_NO = 999
REV_AT_EPOCH   = 13959
BSTAR          = .7121E-3
MEAN_MOTION_DOT = .57811E-3
MEAN_MOTION_DDOT = 0

CCSDS_OMM_VERS = 2.0
CREATION_DATE  = 
ORIGINATOR     = 

OBJECT_NAME    = ALOS (DAICHI)
OBJECT_ID      = 2006-002A
CENTER_NAME    = EARTH
REF_FRAME      = TEME
TIME_SYSTEM    = UTC
MEAN_ELEMENT_THEORY = SGP/SGP4

EPOCH          = 2026-03-08T11:33:45.970848
MEAN_MOTION    = 14.69807125
ECCENTRICITY   = .0000973
INCLINATION    = 98.1218
RA_OF_ASC_NODE = 23.4433
ARG_OF_PERICENTER = 57.2536
MEAN_ANOMALY   = 302.8763

EPHEMERIS_TYPE = 0
CLASSIFICATION_TYPE = U
NORAD_CAT_ID   = 28931
ELEMENT_SET_NO = 999
REV_AT_EPOCH   = 7330
BSTAR          = .38441E-3
MEAN_MOTION_DOT = .2246E-4
MEAN_MOTION_DDOT = 0

