AQUA                    
1 27424U 02022A   26067.53089742  .00001601  00000+0  32931-3 0  9992
2 27424  98.4174  34.8747 0000567  75.1646  37.6898 14.61974795268565
CZ-4B R/B               
1 27432U 02024C   26067.43589498  .00000053  00000+0  50203-4 0  9998
2 27432  98.8841 120.8489 0050543  27.7663 343.0346 14.14547463229069
MIDORI II (ADEOS-II)    
1 27597U 02056A   26067.47361629  .00000452  00000+0  19568-3 0  9994
2 27597  98.7768  25.9428 0001637  44.4388 315.6924 14.29284186210126
H-2A R/B                
1 27601U 02056E   26067.53155822  .00000377  00000+0  14637-3 0  9991
2 27601  98.3202  27.9412 0070438 164.0970 311.7337 14.33759926213949
CZ-4B R/B               
1 28059U 03049C   26067.48953776  .00000559  00000+0  13979-3 0  9990
2 28059  98.6879  62.3472 0047207 234.6442 125.0337 14.55019163186429
CZ-2C R/B               
1 28222U 04012C   26067.13795950  .00073007  00000+0  75856-3 0  9993
2 28222  97.7227 132.2834 0013011 315.6412  44.3802 15.64285708204039
SL-16 R/B               
1 28353U 04021B   26067.53774736 -.00000227  00000+0 -93348-4 0  9994
2 28353  70.9994 234.9099 0003979  11.4573 348.6639 14.14598441122674
CZ-4B R/B               
1 28415U 04035C   26067.07685045  .00012195  00000+0  42884-3 0  9994
2 28415  97.3499 101.3384 0031169 337.5188  22.4684 15.29030592179669
CZ-2C R/B               
1 28480U 04046B   26067.50390842  .00000161  00000+0  74573-4 0  9995
2 28480  98.1984 342.5617 0139826 157.9305 202.7978 14.26991577108331
ARIANE 5 R/B            
1 28499U 04049H   26067.42003619  .00001149  00000+0  13285-3 0  9991
2 28499  98.2625 235.8295 0084030 356.0582   3.9960 14.85263891145604
CZ-2D R/B               
1 28738U 05024B   26067.49070232  .00057811  00000+0  71210-3 0  9992
2 28738  97.3598  82.5929 0006094  50.0585 310.1207 15.60021122139599
ALOS (DAICHI)           
1 28931U 06002A   26067.48178207  .00002246  00000+0  38441-3 0  9995
2 28931  98.1218  23.4433 0000973  57.2536 302.8763 14.69807125 73305
